NORAD_CAT_ID,OBJECT_NAME,OBJECT_TYPE,EPOCH,MEAN_MOTION,ECCENTRICITY,INCLINATION,RA_OF_ASC_NODE,ARG_OF_PERICENTER,MEAN_ANOMALY,BSTAR,MEAN_MOTION_DOT,MEAN_MOTION_DDOT,TLE_LINE0,TLE_LINE1,TLE_LINE2,SEMIMAJOR_AXIS,PERIOD,APOGEE,PERIGEE,DECAYED
53795.0,STARLINK-4742,PAYLOAD,2024-07-10 22:48:45,15.08840463,0.0001255,53.2171,117.5639,89.0351,271.0785,3.5587e-05,2.79e-06,0.0,0 STARLINK-4742,1 53795U 22111Y   24192.95053069  .00000279  00000-0  35587-4 0  9991,2 53795  53.2171 117.5639 0001255  89.0351 271.0785 15.08840463102092,6917.879,95.438,540.612,538.876,0.0
53795.0,STARLINK-4742,PAYLOAD,2024-07-11 01:59:31,15.08846905,0.0001299,53.2167,116.9699,91.6442,268.4699,2.187e-05,6e-07,0.0,0 STARLINK-4742,1 53795U 22111Y   24193.08300720  .00000060  00000-0  21870-4 0  9993,2 53795  53.2167 116.9699 0001299  91.6442 268.4699 15.08846905102118,6917.859,95.437,540.623,538.826,0.0
53795.0,STARLINK-4742,PAYLOAD,2024-07-12 03:25:42,15.08840147,0.0001313,53.2166,112.2089,98.2015,261.9126,6.1505e-05,6.91e-06,0.0,0 STARLINK-4742,1 53795U 22111Y   24194.14285248  .00000691  00000-0  61505-4 0  9997,2 53795  53.2166 112.2089 0001313  98.2015 261.9126 15.08840147101478,6917.88,95.438,540.653,538.837,0.0
53795.0,STARLINK-4742,PAYLOAD,2024-07-12 11:22:38,15.08835613,0.0001123,53.2162,110.7228,83.6431,276.4689,5.4973e-05,5.87e-06,0.0,0 STARLINK-4742,1 53795U 22111Y   24194.47405701  .00000587  00000-0  54973-4 0  9996,2 53795  53.2162 110.7228 0001123  83.6431 276.4689 15.08835613102323,6917.894,95.438,540.536,538.982,0.0
53795.0,STARLINK-4742,PAYLOAD,2024-07-12 22:30:20,15.08837511,0.0001285,53.2169,108.6412,94.6993,265.4146,-1.5451e-05,-5.34e-06,0.0,0 STARLINK-4742,1 53795U 22111Y   24194.93773957 -.00000534  00000-0 -15451-4 0  9990,2 53795  53.2169 108.6412 0001285  94.6993 265.4146 15.08837511102397,6917.888,95.438,540.642,538.864,0.0
53795.0,STARLINK-4742,PAYLOAD,2024-07-13 03:16:29,15.08845308,0.0001555,53.2177,107.7494,91.4722,268.6449,6.168e-05,6.94e-06,0.0,0 STARLINK-4742,1 53795U 22111Y   24195.13645297  .00000694  00000-0  61680-4 0  9998,2 53795  53.2177 107.7494 0001555  91.4722 268.6449 15.08845308101620,6917.864,95.437,540.805,538.653,0.0
53795.0,STARLINK-4742,PAYLOAD,2024-07-13 11:13:25,15.08845248,0.0001634,53.2181,106.2602,79.4325,280.6851,3.8471e-05,3.24e-06,0.0,0 STARLINK-4742,1 53795U 22111Y   24195.46765363  .00000324  00000-0  38471-4 0  9993,2 53795  53.2181 106.2602 0001634  79.4325 280.6851 15.08845248102471,6917.864,95.437,540.86,538.599,0.0
53795.0,STARLINK-4742,PAYLOAD,2024-07-13 17:34:58,15.08839102,0.0001619,53.2176,105.0754,71.0634,289.0534,4.7942e-05,4.75e-06,0.0,0 STARLINK-4742,1 53795U 22111Y   24195.73261866  .00000475  00000-0  47942-4 0  9992,2 53795  53.2176 105.0754 0001619  71.0634 289.0534 15.08839102101713,6917.883,95.438,540.868,538.628,0.0
53795.0,STARLINK-4742,PAYLOAD,2024-07-13 22:21:07,15.0883804,0.0001687,53.2182,104.1824,73.926,286.1918,2.9986e-05,1.89e-06,0.0,0 STARLINK-4742,1 53795U 22111Y   24195.93134126  .00000189  00000-0  29986-4 0  9992,2 53795  53.2182 104.1824 0001687  73.9260 286.1918 15.08838040102545,6917.886,95.438,540.918,538.584,0.0
53795.0,STARLINK-4742,PAYLOAD,2024-07-14 11:04:12,15.08841706,0.0001403,53.2163,101.7998,87.1146,273.0007,7.2236e-05,8.62e-06,0.0,0 STARLINK-4742,1 53795U 22111Y   24196.46125530  .00000862  00000-0  72236-4 0  9994,2 53795  53.2163 101.7998 0001403  87.1146 273.0007 15.08841706102621,6917.875,95.437,540.711,538.77,0.0
53795.0,STARLINK-4742,PAYLOAD,2024-07-14 22:11:54,15.0884284,0.0001276,53.2163,99.7208,89.2993,270.8146,0.0001101,1.465e-05,0.0,0 STARLINK-4742,1 53795U 22111Y   24196.92493333  .00001465  00000-0  11010-3 0  9996,2 53795  53.2163  99.7208 0001276  89.2993 270.8146 15.08842840102698,6917.872,95.437,540.619,538.854,0.0
53795.0,STARLINK-4742,PAYLOAD,2024-07-15 01:22:39,15.08855539,0.0001325,53.2164,99.126,93.4009,266.7134,8.0606e-05,9.96e-06,0.0,0 STARLINK-4742,1 53795U 22111Y   24197.05740599  .00000996  00000-0  80606-4 0  9996,2 53795  53.2164  99.1260 0001325  93.4009 266.7134 15.08855539101915,6917.833,95.437,540.615,538.781,0.0
53795.0,STARLINK-4742,PAYLOAD,2024-07-15 10:54:59,15.0884369,0.0001508,53.218,97.3393,86.3346,273.7819,2.2405e-05,6.9e-07,0.0,0 STARLINK-4742,1 53795U 22111Y   24197.45485405  .00000069  00000-0  22405-4 0  9996,2 53795  53.2180  97.3393 0001508  86.3346 273.7819 15.08843690101977,6917.869,95.437,540.777,538.691,0.0
53795.0,STARLINK-4742,PAYLOAD,2024-07-15 22:02:41,15.08836023,0.0001855,53.2179,95.2604,81.7094,278.4108,1.1977e-05,-9.8e-07,0.0,0 STARLINK-4742,1 53795U 22111Y   24197.91854034 -.00000098  00000-0  11977-4 0  9990,2 53795  53.2179  95.2604 0001855  81.7094 278.4108 15.08836023102843,6917.893,95.438,541.041,538.474,0.0
53795.0,STARLINK-4742,PAYLOAD,2024-07-16 02:48:50,15.0884635,0.0001526,53.2171,94.3653,94.3098,265.8069,1.4268e-05,-6.1e-07,0.0,0 STARLINK-4742,1 53795U 22111Y   24198.11725208 -.00000061  00000-0  14268-4 0  9999,2 53795  53.2171  94.3653 0001526  94.3098 265.8069 15.08846350102871,6917.861,95.437,540.782,538.67,0.0
53795.0,STARLINK-4742,PAYLOAD,2024-07-16 20:18:05,15.08843316,0.000169,53.2155,91.0968,91.2408,268.8778,2.2414e-05,6.9e-07,0.0,0 STARLINK-4742,1 53795U 22111Y   24198.84589305  .00000069  00000-0  22414-4 0  9994,2 53795  53.2155  91.0968 0001690  91.2408 268.8778 15.08843316102182,6917.87,95.437,540.904,538.566,0.0
53795.0,STARLINK-4742,PAYLOAD,2024-07-16 21:53:28,15.08840178,0.000151,53.2177,90.7974,99.7722,260.3441,0.00010778,1.428e-05,0.0,0 STARLINK-4742,1 53795U 22111Y   24198.91213186  .00001428  00000-0  10778-3 0  9992,2 53795  53.2177  90.7974 0001510  99.7722 260.3441 15.08840178102998,6917.88,95.438,540.789,538.7,0.0
53795.0,STARLINK-4742,PAYLOAD,2024-07-16 23:28:51,15.08851193,0.0001513,53.2174,90.5011,91.6555,268.4611,-6.3078e-06,-3.88e-06,0.0,0 STARLINK-4742,1 53795U 22111Y   24198.97836822 -.00000388  00000-0 -63078-5 0  9995,2 53795  53.2174  90.5011 0001513  91.6555 268.4611 15.08851193102204,6917.846,95.437,540.758,538.665,0.0
53795.0,STARLINK-4742,PAYLOAD,2024-07-17 21:44:16,15.08833596,0.00015,53.2169,86.3356,91.0564,269.06,2.9257e-05,1.78e-06,0.0,0 STARLINK-4742,1 53795U 22111Y   24199.90574125  .00000178  00000-0  29257-4 0  9999,2 53795  53.2169  86.3356 0001500  91.0564 269.0600 15.08833596102340,6917.9,95.438,540.803,538.727,0.0
53795.0,STARLINK-4742,PAYLOAD,2024-07-17 23:19:39,15.08836041,0.0001472,53.2165,86.0386,85.2504,274.8656,4.7496e-05,4.68e-06,0.0,0 STARLINK-4742,1 53795U 22111Y   24199.97197951  .00000468  00000-0  47496-4 0  9991,2 53795  53.2165  86.0386 0001472  85.2504 274.8656 15.08836041103156,6917.892,95.438,540.776,538.739,0.0
53795.0,STARLINK-4742,PAYLOAD,2024-07-18 08:51:58,15.08836042,0.0001381,53.216,84.2556,81.302,278.8128,-5.2267e-06,-3.71e-06,0.0,0 STARLINK-4742,1 53795U 22111Y   24200.36942246 -.00000371  00000-0 -52267-5 0  9990,2 53795  53.2160  84.2556 0001381  81.3020 278.8128 15.08836042103215,6917.892,95.438,540.713,538.802,0.0
53795.0,STARLINK-4742,PAYLOAD,2024-07-18 21:35:03,15.088372,0.0001377,53.2174,81.8788,85.6953,274.4196,2.4132e-05,9.6e-07,0.0,0 STARLINK-4742,1 53795U 22111Y   24200.89934392  .00000096  00000-0  24132-4 0  9992,2 53795  53.2174  81.8788 0001377  85.6953 274.4196 15.08837200103299,6917.889,95.438,540.707,538.801,0.0
53795.0,STARLINK-4742,PAYLOAD,2024-07-19 08:42:44,15.08850754,0.0001305,53.2173,79.8005,78.5706,281.5433,1.8469e-05,6e-08,0.0,0 STARLINK-4742,1 53795U 22111Y   24201.36301532  .00000006  00000-0  18469-4 0  9996,2 53795  53.2173  79.8005 0001305  78.5706 281.5433 15.08850754102566,6917.848,95.437,540.615,538.81,0.0
53795.0,STARLINK-4742,PAYLOAD,2024-07-19 21:25:50,15.08835071,0.0001509,53.2185,77.4264,109.0346,251.0809,8.5836e-05,1.078e-05,0.0,0 STARLINK-4742,1 53795U 22111Y   24201.89294578  .00001078  00000-0  85836-4 0  9997,2 53795  53.2185  77.4264 0001509 109.0346 251.0809 15.08835071102649,6917.895,95.438,540.804,538.717,0.0
53795.0,STARLINK-4742,PAYLOAD,2024-07-19 23:01:13,15.08834323,0.0001476,53.2184,77.127,105.1055,255.0101,6.9168e-05,8.13e-06,0.0,0 STARLINK-4742,1 53795U 22111Y   24201.95918677  .00000813  00000-0  69168-4 0  9993,2 53795  53.2184  77.1270 0001476 105.1055 255.0101 15.08834323103457,6917.898,95.438,540.784,538.742,0.0
53795.0,STARLINK-4742,PAYLOAD,2024-07-20 21:16:37,15.08844342,0.00013,53.2174,72.9629,109.9632,250.15,-1.065e-06,-3.05e-06,0.0,0 STARLINK-4742,1 53795U 22111Y   24202.88654615 -.00000305  00000-0 -10650-5 0  9996,2 53795  53.2174  72.9629 0001300 109.9632 250.1500 15.08844342103592,6917.867,95.437,540.631,538.833,0.0
53795.0,STARLINK-4742,PAYLOAD,2024-07-21 00:27:23,15.08848684,0.0001101,53.2167,72.3648,79.1525,280.9591,8.1861e-05,1.016e-05,0.0,0 STARLINK-4742,1 53795U 22111Y   24203.01902138  .00001016  00000-0  81861-4 0  9997,2 53795  53.2167  72.3648 0001101  79.1525 280.9591 15.08848684102815,6917.854,95.437,540.481,538.957,0.0
53795.0,STARLINK-4742,PAYLOAD,2024-07-21 21:07:24,15.08838712,0.0001298,53.2167,68.5005,79.431,280.6829,6.2963e-05,7.14e-06,0.0,0 STARLINK-4742,1 53795U 22111Y   24203.88015028  .00000714  00000-0  62963-4 0  9991,2 53795  53.2167  68.5005 0001298  79.4310 280.6829 15.08838712102947,6917.884,95.438,540.647,538.851,0.0
53795.0,STARLINK-4742,PAYLOAD,2024-07-21 22:42:47,15.08846047,0.0001354,53.2177,68.1973,77.3668,282.7476,6.7329e-05,7.84e-06,0.0,0 STARLINK-4742,1 53795U 22111Y   24203.94638451  .00000784  00000-0  67329-4 0  9997,2 53795  53.2177  68.1973 0001354  77.3668 282.7476 15.08846047102956,6917.862,95.437,540.664,538.79,0.0
53795.0,STARLINK-4742,PAYLOAD,2024-07-22 14:36:39,15.08845169,0.0001258,53.2173,65.2301,80.6913,279.4221,1.3972e-05,-6.5e-07,0.0,0 STARLINK-4742,1 53795U 22111Y   24204.60878919 -.00000065  00000-0  13972-4 0  9994,2 53795  53.2173  65.2301 0001258  80.6913 279.4221 15.08845169103853,6917.865,95.437,540.6,538.859,0.0
